{
  "type": "FeatureCollection",
  "features": [
    {
      "type": "Feature",
      "properties": {
        "norad_id": 38867,
        "name": "INTELSAT 23 (IS-23)",
        "group": "intelsat",
        "lat": 0.04017306133389194,
        "lon": 159.11143389856005,
        "alt_km": 35789.2442509188,
        "timestamp": "2025-12-08T08:59:00.439889+00:00",
        "meta_object_name": "INTELSAT 23 (IS-23)",
        "meta_object_id": "2012-057A",
        "meta_epoch": "2025-12-07T21:56:31.936992",
        "meta_mean_motion": 1.00271763,
        "meta_eccentricity": 0.00014671,
        "meta_inclination": 0.0488,
        "meta_ra_of_asc_node": 95.2077,
        "meta_arg_of_pericenter": 184.12,
        "meta_mean_anomaly": 73.7314,
        "meta_ephemeris_type": 0,
        "meta_classification_type": "U",
        "meta_norad_cat_id": 38867,
        "meta_element_set_no": 999,
        "meta_rev_at_epoch": 4803,
        "meta_bstar": 0,
        "meta_mean_motion_dot": -2.82e-06,
        "meta_mean_motion_ddot": 0,
        "tle_line1": "1 38867U 12057A   25341.91425853 -.00000282  00000+0  00000+0 0  9990",
        "tle_line2": "2 38867   0.0488  95.2077 0001467 184.1200  73.7314  1.00271763 48035"
      },
      "geometry": {
        "type": "Point",
        "coordinates": [
          159.11143389856005,
          0.04017306133389194
        ]
      }
    },
    {
      "type": "Feature",
      "properties": {
        "norad_id": 39360,
        "name": "FM-6",
        "group": "intelsat",
        "lat": 0.01180880945970068,
        "lon": 95.95449072776705,
        "alt_km": 35783.38780804653,
        "timestamp": "2025-12-08T08:59:00.439901+00:00",
        "meta_object_name": "FM-6",
        "meta_object_id": "2013-058A",
        "meta_epoch": "2025-12-07T21:38:34.999008",
        "meta_mean_motion": 1.00271197,
        "meta_eccentricity": 0.00029413,
        "meta_inclination": 0.0023,
        "meta_ra_of_asc_node": 49.0219,
        "meta_arg_of_pericenter": 123.5891,
        "meta_mean_anomaly": 112.8105,
        "meta_ephemeris_type": 0,
        "meta_classification_type": "U",
        "meta_norad_cat_id": 39360,
        "meta_element_set_no": 999,
        "meta_rev_at_epoch": 4415,
        "meta_bstar": 0,
        "meta_mean_motion_dot": -1.4e-07,
        "meta_mean_motion_ddot": 0,
        "tle_line1": "1 39360U 13058A   25341.90179397 -.00000014  00000+0  00000+0 0  9992",
        "tle_line2": "2 39360   0.0023  49.0219 0002941 123.5891 112.8105  1.00271197 44158"
      },
      "geometry": {
        "type": "Point",
        "coordinates": [
          95.95449072776705,
          0.01180880945970068
        ]
      }
    },
    {
      "type": "Feature",
      "properties": {
        "norad_id": 40271,
        "name": "INTELSAT 30 (IS-30)",
        "group": "intelsat",
        "lat": 0.029468941620011256,
        "lon": 117.07518912659661,
        "alt_km": 35782.30822146214,
        "timestamp": "2025-12-08T08:59:00.439912+00:00",
        "meta_object_name": "INTELSAT 30 (IS-30)",
        "meta_object_id": "2014-062A",
        "meta_epoch": "2025-12-07T21:44:34.424736",
        "meta_mean_motion": 1.00269542,
        "meta_eccentricity": 0.00011644,
        "meta_inclination": 0.0135,
        "meta_ra_of_asc_node": 16.7904,
        "meta_arg_of_pericenter": 74.0642,
        "meta_mean_anomaly": 217.1536,
        "meta_ephemeris_type": 0,
        "meta_classification_type": "U",
        "meta_norad_cat_id": 40271,
        "meta_element_set_no": 999,
        "meta_rev_at_epoch": 486,
        "meta_bstar": 0,
        "meta_mean_motion_dot": -1.47e-06,
        "meta_mean_motion_ddot": 0,
        "tle_line1": "1 40271U 14062A   25341.90595399 -.00000147  00000+0  00000+0 0  9992",
        "tle_line2": "2 40271   0.0135  16.7904 0001164  74.0642 217.1536  1.00269542  4869"
      },
      "geometry": {
        "type": "Point",
        "coordinates": [
          117.07518912659661,
          0.029468941620011256
        ]
      }
    },
    {
      "type": "Feature",
      "properties": {
        "norad_id": 40333,
        "name": "DIRECTV 14",
        "group": "intelsat",
        "lat": 0.0287606329595152,
        "lon": 112.9041069722711,
        "alt_km": 35786.57873548569,
        "timestamp": "2025-12-08T08:59:00.439924+00:00",
        "meta_object_name": "DIRECTV 14",
        "meta_object_id": "2014-078B",
        "meta_epoch": "2025-12-07T21:43:27.031872",
        "meta_mean_motion": 1.0027089,
        "meta_eccentricity": 4.244e-05,
        "meta_inclination": 0.0166,
        "meta_ra_of_asc_node": 339.618,
        "meta_arg_of_pericenter": 230.6243,
        "meta_mean_anomaly": 93.3218,
        "meta_ephemeris_type": 0,
        "meta_classification_type": "U",
        "meta_norad_cat_id": 40333,
        "meta_element_set_no": 999,
        "meta_rev_at_epoch": 4012,
        "meta_bstar": 0,
        "meta_mean_motion_dot": -1.22e-06,
        "meta_mean_motion_ddot": 0,
        "tle_line1": "1 40333U 14078B   25341.90517398 -.00000122  00000+0  00000+0 0  9994",
        "tle_line2": "2 40333   0.0166 339.6180 0000424 230.6243  93.3218  1.00270890 40128"
      },
      "geometry": {
        "type": "Point",
        "coordinates": [
          112.9041069722711,
          0.0287606329595152
        ]
      }
    },
    {
      "type": "Feature",
      "properties": {
        "norad_id": 40663,
        "name": "DIRECTV 15",
        "group": "intelsat",
        "lat": 0.031958273921485446,
        "lon": 109.26557661121778,
        "alt_km": 35787.463532599664,
        "timestamp": "2025-12-08T08:59:00.439936+00:00",
        "meta_object_name": "DIRECTV 15",
        "meta_object_id": "2015-026A",
        "meta_epoch": "2025-12-07T21:42:19.639872",
        "meta_mean_motion": 1.00270298,
        "meta_eccentricity": 4.055e-05,
        "meta_inclination": 0.0372,
        "meta_ra_of_asc_node": 79.2583,
        "meta_arg_of_pericenter": 153.9625,
        "meta_mean_anomaly": 66.4231,
        "meta_ephemeris_type": 0,
        "meta_classification_type": "U",
        "meta_norad_cat_id": 40663,
        "meta_element_set_no": 999,
        "meta_rev_at_epoch": 3854,
        "meta_bstar": 0,
        "meta_mean_motion_dot": -9.9e-07,
        "meta_mean_motion_ddot": 0,
        "tle_line1": "1 40663U 15026A   25341.90439398 -.00000099  00000+0  00000+0 0  9990",
        "tle_line2": "2 40663   0.0372  79.2583 0000405 153.9625  66.4231  1.00270298 38548"
      },
      "geometry": {
        "type": "Point",
        "coordinates": [
          109.26557661121778,
          0.031958273921485446
        ]
      }
    },
    {
      "type": "Feature",
      "properties": {
        "norad_id": 40664,
        "name": "SKY MEXICO-1",
        "group": "intelsat",
        "lat": 0.026457425195132164,
        "lon": 133.34237292017883,
        "alt_km": 35795.125151157124,
        "timestamp": "2025-12-08T08:59:00.439947+00:00",
        "meta_object_name": "SKY MEXICO-1",
        "meta_object_id": "2015-026B",
        "meta_epoch": "2025-12-07T21:49:11.481888",
        "meta_mean_motion": 1.00271005,
        "meta_eccentricity": 0.00027774,
        "meta_inclination": 0.019,
        "meta_ra_of_asc_node": 47.267,
        "meta_arg_of_pericenter": 224.5483,
        "meta_mean_anomaly": 53.6424,
        "meta_ephemeris_type": 0,
        "meta_classification_type": "U",
        "meta_norad_cat_id": 40664,
        "meta_element_set_no": 999,
        "meta_rev_at_epoch": 3853,
        "meta_bstar": 0,
        "meta_mean_motion_dot": -2.31e-06,
        "meta_mean_motion_ddot": 0,
        "tle_line1": "1 40664U 15026B   25341.90916067 -.00000231  00000+0  00000+0 0  9992",
        "tle_line2": "2 40664   0.0190  47.2670 0002777 224.5483  53.6424  1.00271005 38538"
      },
      "geometry": {
        "type": "Point",
        "coordinates": [
          133.34237292017883,
          0.026457425195132164
        ]
      }
    },
    {
      "type": "Feature",
      "properties": {
        "norad_id": 40874,
        "name": "INTELSAT 34 (IS-34)",
        "group": "intelsat",
        "lat": -0.007412157392365875,
        "lon": 156.63023937826136,
        "alt_km": 35783.722148134235,
        "timestamp": "2025-12-08T08:59:00.439973+00:00",
        "meta_object_name": "INTELSAT 34 (IS-34)",
        "meta_object_id": "2015-039A",
        "meta_epoch": "2025-12-07T20:13:05.685888",
        "meta_mean_motion": 1.00271181,
        "meta_eccentricity": 6.715e-05,
        "meta_inclination": 0.0119,
        "meta_ra_of_asc_node": 308.5546,
        "meta_arg_of_pericenter": 231.021,
        "meta_mean_anomaly": 145.0618,
        "meta_ephemeris_type": 0,
        "meta_classification_type": "U",
        "meta_norad_cat_id": 40874,
        "meta_element_set_no": 999,
        "meta_rev_at_epoch": 3770,
        "meta_bstar": 0,
        "meta_mean_motion_dot": -2.82e-06,
        "meta_mean_motion_ddot": 0,
        "tle_line1": "1 40874U 15039A   25341.84242692 -.00000282  00000+0  00000+0 0  9994",
        "tle_line2": "2 40874   0.0119 308.5546 0000671 231.0210 145.0618  1.00271181 37703"
      },
      "geometry": {
        "type": "Point",
        "coordinates": [
          156.63023937826136,
          -0.007412157392365875
        ]
      }
    }
  ]
}